{
  "type": "FeatureCollection",
  "features": [
    {
      "type": "Feature",
      "properties": {
        "norad_id": 66892,
        "name": "STARLINK-35883",
        "group": "last-30-days",
        "lat": 34.48498951250127,
        "lon": 32.20055802549766,
        "alt_km": 404.3965521443952,
        "timestamp": "2025-12-27T08:36:17.079024+00:00",
        "meta_object_name": "STARLINK-35883",
        "meta_object_id": "2025-283Q",
        "meta_epoch": "2025-12-27T04:00:01.998720",
        "meta_mean_motion": 15.53406533,
        "meta_eccentricity": 0.0001185,
        "meta_inclination": 53.1605,
        "meta_ra_of_asc_node": 2.1276,
        "meta_arg_of_pericenter": 86.2921,
        "meta_mean_anomaly": 325.6944,
        "meta_ephemeris_type": 0,
        "meta_classification_type": "U",
        "meta_norad_cat_id": 66892,
        "meta_element_set_no": 999,
        "meta_rev_at_epoch": 468,
        "meta_bstar": -0.036179,
        "meta_mean_motion_dot": -0.02074604,
        "meta_mean_motion_ddot": 0,
        "tle_line1": "1 66892U 25283Q   25361.16668980 -.02074604  00000+0 -36179-1 0  9993",
        "tle_line2": "2 66892  53.1605   2.1276 0001185  86.2921 325.6944 15.53406533  4680"
      },
      "geometry": {
        "type": "Point",
        "coordinates": [
          32.20055802549766,
          34.48498951250127
        ]
      }
    },
    {
      "type": "Feature",
      "properties": {
        "norad_id": 66893,
        "name": "STARLINK-36033",
        "group": "last-30-days",
        "lat": 35.79010979730853,
        "lon": 33.91926486959491,
        "alt_km": 404.1950970094085,
        "timestamp": "2025-12-27T08:36:17.079034+00:00",
        "meta_object_name": "STARLINK-36033",
        "meta_object_id": "2025-283R",
        "meta_epoch": "2025-12-27T04:00:01.998720",
        "meta_mean_motion": 15.53401055,
        "meta_eccentricity": 0.0001065,
        "meta_inclination": 53.1603,
        "meta_ra_of_asc_node": 2.1232,
        "meta_arg_of_pericenter": 80.2101,
        "meta_mean_anomaly": 333.6946,
        "meta_ephemeris_type": 0,
        "meta_classification_type": "U",
        "meta_norad_cat_id": 66893,
        "meta_element_set_no": 999,
        "meta_rev_at_epoch": 474,
        "meta_bstar": -0.036002,
        "meta_mean_motion_dot": -0.02065091,
        "meta_mean_motion_ddot": 0,
        "tle_line1": "1 66893U 25283R   25361.16668980 -.02065091  00000+0 -36002-1 0  9999",
        "tle_line2": "2 66893  53.1603   2.1232 0001065  80.2101 333.6946 15.53401055  4744"
      },
      "geometry": {
        "type": "Point",
        "coordinates": [
          33.91926486959491,
          35.79010979730853
        ]
      }
    },
    {
      "type": "Feature",
      "properties": {
        "norad_id": 66894,
        "name": "STARLINK-35718",
        "group": "last-30-days",
        "lat": 37.065944667954945,
        "lon": 35.69091191580306,
        "alt_km": 403.88462790443737,
        "timestamp": "2025-12-27T08:36:17.079044+00:00",
        "meta_object_name": "STARLINK-35718",
        "meta_object_id": "2025-283S",
        "meta_epoch": "2025-12-27T04:00:01.998720",
        "meta_mean_motion": 15.53388666,
        "meta_eccentricity": 0.0001212,
        "meta_inclination": 53.1601,
        "meta_ra_of_asc_node": 2.1203,
        "meta_arg_of_pericenter": 78.2301,
        "meta_mean_anomaly": 337.592,
        "meta_ephemeris_type": 0,
        "meta_classification_type": "U",
        "meta_norad_cat_id": 66894,
        "meta_element_set_no": 999,
        "meta_rev_at_epoch": 474,
        "meta_bstar": -0.035592,
        "meta_mean_motion_dot": -0.02043401,
        "meta_mean_motion_ddot": 0,
        "tle_line1": "1 66894U 25283S   25361.16668980 -.02043401  00000+0 -35592-1 0  9994",
        "tle_line2": "2 66894  53.1601   2.1203 0001212  78.2301 337.5920 15.53388666  4741"
      },
      "geometry": {
        "type": "Point",
        "coordinates": [
          35.69091191580306,
          37.065944667954945
        ]
      }
    },
    {
      "type": "Feature",
      "properties": {
        "norad_id": 66895,
        "name": "STARLINK-35971",
        "group": "last-30-days",
        "lat": 39.54063236604603,
        "lon": 39.42550277054191,
        "alt_km": 403.571911850986,
        "timestamp": "2025-12-27T08:36:17.079054+00:00",
        "meta_object_name": "STARLINK-35971",
        "meta_object_id": "2025-283T",
        "meta_epoch": "2025-12-27T04:00:01.998720",
        "meta_mean_motion": 15.53398279,
        "meta_eccentricity": 0.0001138,
        "meta_inclination": 53.1595,
        "meta_ra_of_asc_node": 2.1102,
        "meta_arg_of_pericenter": 88.5853,
        "meta_mean_anomaly": 331.0693,
        "meta_ephemeris_type": 0,
        "meta_classification_type": "U",
        "meta_norad_cat_id": 66895,
        "meta_element_set_no": 999,
        "meta_rev_at_epoch": 474,
        "meta_bstar": -0.03588,
        "meta_mean_motion_dot": -0.02058747,
        "meta_mean_motion_ddot": 0,
        "tle_line1": "1 66895U 25283T   25361.16668980 -.02058747  00000+0 -35880-1 0  9994",
        "tle_line2": "2 66895  53.1595   2.1102 0001138  88.5853 331.0693 15.53398279  4742"
      },
      "geometry": {
        "type": "Point",
        "coordinates": [
          39.42550277054191,
          39.54063236604603
        ]
      }
    },
    {
      "type": "Feature",
      "properties": {
        "norad_id": 66896,
        "name": "STARLINK-35791",
        "group": "last-30-days",
        "lat": 38.31916628661264,
        "lon": 37.52704620035764,
        "alt_km": 403.7390643499657,
        "timestamp": "2025-12-27T08:36:17.079069+00:00",
        "meta_object_name": "STARLINK-35791",
        "meta_object_id": "2025-283U",
        "meta_epoch": "2025-12-27T04:00:01.998720",
        "meta_mean_motion": 15.53395705,
        "meta_eccentricity": 0.0001046,
        "meta_inclination": 53.1599,
        "meta_ra_of_asc_node": 2.1147,
        "meta_arg_of_pericenter": 72.7624,
        "meta_mean_anomaly": 344.9735,
        "meta_ephemeris_type": 0,
        "meta_classification_type": "U",
        "meta_norad_cat_id": 66896,
        "meta_element_set_no": 999,
        "meta_rev_at_epoch": 474,
        "meta_bstar": -0.035756,
        "meta_mean_motion_dot": -0.0205216,
        "meta_mean_motion_ddot": 0,
        "tle_line1": "1 66896U 25283U   25361.16668980 -.02052160  00000+0 -35756-1 0  9990",
        "tle_line2": "2 66896  53.1599   2.1147 0001046  72.7624 344.9735 15.53395705  4746"
      },
      "geometry": {
        "type": "Point",
        "coordinates": [
          37.52704620035764,
          38.31916628661264
        ]
      }
    },
    {
      "type": "Feature",
      "properties": {
        "norad_id": 66897,
        "name": "STARLINK-36079",
        "group": "last-30-days",
        "lat": 40.7307931272747,
        "lon": 41.39273168937738,
        "alt_km": 403.46813710433435,
        "timestamp": "2025-12-27T08:36:17.079081+00:00",
        "meta_object_name": "STARLINK-36079",
        "meta_object_id": "2025-283V",
        "meta_epoch": "2025-12-27T04:00:01.998720",
        "meta_mean_motion": 15.53393837,
        "meta_eccentricity": 9.46e-05,
        "meta_inclination": 53.1597,
        "meta_ra_of_asc_node": 2.1068,
        "meta_arg_of_pericenter": 87.5563,
        "meta_mean_anomaly": 334.0153,
        "meta_ephemeris_type": 0,
        "meta_classification_type": "U",
        "meta_norad_cat_id": 66897,
        "meta_element_set_no": 999,
        "meta_rev_at_epoch": 474,
        "meta_bstar": -0.03572,
        "meta_mean_motion_dot": -0.02050104,
        "meta_mean_motion_ddot": 0,
        "tle_line1": "1 66897U 25283V   25361.16668980 -.02050104  00000+0 -35720-1 0  9998",
        "tle_line2": "2 66897  53.1597   2.1068 0000946  87.5563 334.0153 15.53393837  4749"
      },
      "geometry": {
        "type": "Point",
        "coordinates": [
          41.39273168937738,
          40.7307931272747
        ]
      }
    },
    {
      "type": "Feature",
      "properties": {
        "norad_id": 66898,
        "name": "STARLINK-36065",
        "group": "last-30-days",
        "lat": 41.88712191330259,
        "lon": 43.43145767781305,
        "alt_km": 403.1863193189347,
        "timestamp": "2025-12-27T08:36:17.079095+00:00",
        "meta_object_name": "STARLINK-36065",
        "meta_object_id": "2025-283W",
        "meta_epoch": "2025-12-27T04:00:01.998720",
        "meta_mean_motion": 15.53396308,
        "meta_eccentricity": 0.000104,
        "meta_inclination": 53.1598,
        "meta_ra_of_asc_node": 2.1024,
        "meta_arg_of_pericenter": 78.7754,
        "meta_mean_anomaly": 344.713,
        "meta_ephemeris_type": 0,
        "meta_classification_type": "U",
        "meta_norad_cat_id": 66898,
        "meta_element_set_no": 999,
        "meta_rev_at_epoch": 474,
        "meta_bstar": -0.03581,
        "meta_mean_motion_dot": -0.02054972,
        "meta_mean_motion_ddot": 0,
        "tle_line1": "1 66898U 25283W   25361.16668980 -.02054972  00000+0 -35810-1 0  9996",
        "tle_line2": "2 66898  53.1598   2.1024 0001040  78.7754 344.7130 15.53396308  4742"
      },
      "geometry": {
        "type": "Point",
        "coordinates": [
          43.43145767781305,
          41.88712191330259
        ]
      }
    }
  ]
}